IRIDIUM 156             
1 43576U 18061H   26197.07137109  .00000056  00000+0  13054-4 0  9991
2 43576  86.3937  44.6465 0002110  92.7768 267.3669 14.34217799417519
IRIDIUM 164             
1 43577U 18061J   26197.12211278  .00000130  00000+0  39420-4 0  9996
2 43577  86.3938  44.6661 0002320  89.0798 271.0663 14.34218478417560
IRIDIUM 159             
1 43578U 18061K   26197.09039891  .00000046  00000+0  94630-5 0  9993
2 43578  86.3935  44.6157 0002136  85.4019 274.7421 14.34217521417525
IRIDIUM 180             
1 43922U 19002A   26196.81082101  .00000108  00000+0  31420-4 0  9999
2 43922  86.3993 341.6318 0002216  90.8839 269.2610 14.34218511393094
IRIDIUM 176             
1 43923U 19002B   26196.90944156  .00000377  00000+0  55958-4 0  9997
2 43923  86.6112 341.5300 0002334  90.1985 269.9500 14.72249564403470
IRIDIUM 168             
1 43924U 19002C   26196.94401588 -.00000017  00000+0 -13198-4 0  9992
2 43924  86.3989 341.6542 0002114  91.4243 268.7195 14.34216620393094
IRIDIUM 173             
1 43925U 19002D   26196.93133101 -.00000072  00000+0 -32787-4 0  9991
2 43925  86.3986 341.5475 0002132  93.6953 266.4487 14.34216721393077
IRIDIUM 169             
1 43926U 19002E   26196.97873147  .00000049  00000+0  94096-5 0  9991
2 43926  86.4222  13.1522 0001925 104.3747 255.7665 14.38613387394362
IRIDIUM 172             
1 43927U 19002F   26197.13429432  .00000023  00000+0  12676-5 0  9991
2 43927  86.3990 341.4702 0002191  90.9573 269.1874 14.34217511393112
IRIDIUM 175             
1 43928U 19002G   26197.17999713  .00000178  00000+0  46496-4 0  9997
2 43928  86.4512 278.4025 0005355 113.3442 246.8323 14.43627574403163
IRIDIUM 171             
1 43929U 19002H   26196.90596028  .00000042  00000+0  79405-5 0  9997
2 43929  86.4000 341.8749 0002239  95.1181 265.0271 14.34217724393074
IRIDIUM 170             
1 43930U 19002J   26196.91561113  .00000381  00000+0  56445-4 0  9991
2 43930  86.6111 341.5296 0002253  86.7738 273.3737 14.72250171403486
IRIDIUM 167             
1 43931U 19002K   26196.89961753  .00000031  00000+0  39707-5 0  9998
2 43931  86.3992 341.5910 0002308  98.4900 261.6557 14.34217723393073
IRIDIUM 181             
1 56726U 23068S   26196.53149983  .00000172  00000+0  45155-4 0  9994
2 56726  86.4474  44.9372 0002412  83.4871 276.6605 14.43312397166529
IRIDIUM 177             
1 56727U 23068T   26196.85313332  .00000550  00000+0  69174-4 0  9998
2 56727  86.1986 315.1817 0002177  95.4912 264.6558 14.80024364170602
IRIDIUM 174             
1 56728U 23068U   26196.90316383  .00000388  00000+0  57649-4 0  9997
2 56728  86.6120 341.6850 0001983  88.3147 271.8297 14.72258769170243
IRIDIUM 178             
1 56729U 23068V   26196.90974237  .00000182  00000+0  20564-4 0  9994
2 56729  86.6536  13.3547 0002309  90.9107 269.2379 14.80026522170611
IRIDIUM 179             
1 56730U 23068W   26196.02544386  .00000137  00000+0  14651-4 0  9997
2 56730  86.6767  22.7863 0002321  93.3552 266.7935 14.80033495170481
